     3.02           N: GNSS NAV DATA    G: GPS              RINEX VERSION / TYPE
LgsRinex v1.7.8.0   SMO                 20180417 131059 UTC PGM / RUN BY / DATE
GPSA   1.0245D-08  1.4901D-08 -5.9605D-08 -1.1921D-07       IONOSPHERIC CORR
GPSB   8.8064D+04  3.2768D+04 -1.9661D+05 -1.9661D+05       IONOSPHERIC CORR
GPUT -1.8626451492D-09-2.664535259D-15 405504 1997          TIME SYSTEM CORR
    18    18  1929     7                                    LEAP SECONDS
                                                            END OF HEADER
G17 2018 04 17 12 00 00-1.061717048287D-04 3.410605131648D-12 0.000000000000D+00
     8.600000000000D+01-7.468750000000D+01 3.450500773994D-09-2.846128844622D+00
    -3.792345523834D-06 1.226193015464D-02 1.347251236439D-05 5.153800733566D+03
     2.160000000000D+05 9.872019290924D-08-2.999110964598D+00-4.842877388000D-08
     9.828117299163D-01 1.280625000000D+02-1.781140548682D+00-7.280303471191D-09
     4.964492358872D-11 1.000000000000D+00 1.997000000000D+03 0.000000000000D+00
     2.000000000000D+00 0.000000000000D+00-1.117587089539D-08 8.600000000000D+01
     2.087400000000D+05                   
G18 2018 04 17 12 00 00-2.051703631878D-06 4.774847184308D-12 0.000000000000D+00
     4.700000000000D+01 4.765625000000D+01 4.929848085311D-09 1.129977426587D+00
     2.402812242508D-06 1.438382931519D-02 8.489936590195D-06 5.153666994095D+03
     2.160000000000D+05-3.054738044739D-07-2.043082151624D+00-5.774199962616D-08
     9.489258366043D-01 2.108125000000D+02 1.298622608136D+00-8.507139881431D-09
     6.225259197024D-10 1.000000000000D+00 1.997000000000D+03 0.000000000000D+00
     2.000000000000D+00 0.000000000000D+00-6.984919309616D-09 4.700000000000D+01
     2.087400000000D+05                   
G19 2018 04 17 12 00 00-4.430380649865D-04 2.728484105319D-12 0.000000000000D+00
     1.900000000000D+01-5.993750000000D+01 3.592292463495D-09 1.889984096852D-01
    -3.017485141754D-06 9.818010381423D-03 1.352094113827D-05 5.153716405869D+03
     2.160000000000D+05-2.253800630569D-07-2.952072324473D+00 1.508742570877D-07
     9.802921548859D-01 1.324687500000D+02 1.155009192552D+00-7.651747679915D-09
     6.393123530568D-11 1.000000000000D+00 1.997000000000D+03 0.000000000000D+00
     2.000000000000D+00 0.000000000000D+00-1.536682248116D-08 1.900000000000D+01
     2.087400000000D+05                   
G20 2018 04 17 02 00 00 5.059666000307D-04 9.094947017729D-13 0.000000000000D+00
     8.200000000000D+01-3.803125000000D+01 5.807741843000D-09 2.979259286222D+00
    -1.871958374977D-06 4.258645582013D-03 4.382804036140D-06 5.154824016571D+03
     1.800000000000D+05 8.195638656616D-08-1.061410030502D+00 7.450580596924D-08
     9.279001767097D-01 2.769687500000D+02 1.923844721180D+00-8.736435574974D-09
    -4.600191616522D-10 1.000000000000D+00 1.997000000000D+03 0.000000000000D+00
     2.000000000000D+00 0.000000000000D+00-8.381903171539D-09 8.200000000000D+01
     1.727400000000D+05                   
G21 2018 04 17 06 00 00-4.064394161105D-04 4.661160346586D-12 0.000000000000D+00
     9.700000000000D+01 7.043750000000D+01 5.093426569402D-09 2.750914935540D+00
     3.414228558540D-06 2.446379815228D-02 7.500872015953D-06 5.153724214554D+03
     1.944000000000D+05 3.371387720108D-07-2.049778941475D+00-1.341104507446D-07
     9.431514678044D-01 2.206562500000D+02-1.567360325752D+00-7.981046934447D-09
     5.450226936432D-10 1.000000000000D+00 1.997000000000D+03 0.000000000000D+00
     2.000000000000D+00 0.000000000000D+00-1.024454832077D-08 9.700000000000D+01
     1.871400000000D+05                   
G22 2018 04 17 12 00 00-3.609284758568D-04-1.307398633799D-11 0.000000000000D+00
     8.400000000000D+01-3.725000000000D+01 5.898459942699D-09 2.952218755258D+00
    -2.179294824600D-06 7.461687200703D-03 4.243105649948D-06 5.153535097122D+03
     2.160000000000D+05 2.067536115646D-07-1.011616730263D+00-7.450580596924D-08
     9.246612248801D-01 2.785312500000D+02-1.573992159114D+00-8.757507607982D-09
    -2.457245240617D-10 1.000000000000D+00 1.997000000000D+03 0.000000000000D+00
     2.000000000000D+00 0.000000000000D+00-1.769512891769D-08 8.400000000000D+01
     2.087400000000D+05                   
G23 2018 04 17 12 00 00-2.178917638958D-04 2.273736754432D-13 0.000000000000D+00
     3.100000000000D+01 1.281250000000D+01 4.685552390526D-09 2.274849481915D+00
     5.904585123062D-07 1.228488376364D-02 1.270882785320D-05 5.153573228836D+03
     2.160000000000D+05-1.583248376846D-07 7.904886911412D-02-2.067536115646D-07
     9.441567660905D-01 1.294062500000D+02-2.374285650528D+00-7.916043820444D-09
    -2.810831289946D-10 1.000000000000D+00 1.997000000000D+03 0.000000000000D+00
     2.000000000000D+00 0.000000000000D+00-2.002343535423D-08 3.100000000000D+01
     2.087400000000D+05                   
G24 2018 04 17 00 00 00-4.862062633038D-05-4.547473508865D-13 0.000000000000D+00
     5.100000000000D+01 1.248437500000D+02 5.097712474367D-09 1.636333056937D+00
     6.366521120071D-06 6.894513498992D-03 5.405396223068D-06 5.153653697968D+03
     1.728000000000D+05-5.029141902924D-08 1.099220538033D+00 6.332993507385D-08
     9.419808948853D-01 2.627812500000D+02 5.452805318200D-01-8.646789062539D-09
     4.846630319300D-10 1.000000000000D+00 1.997000000000D+03 0.000000000000D+00
     2.000000000000D+00 0.000000000000D+00 2.793967723846D-09 5.100000000000D+01
     1.655400000000D+05                   
G25 2018 04 17 04 00 00-5.708220414817D-04-6.025402399246D-12 0.000000000000D+00
     6.900000000000D+01-8.384375000000D+01 4.495187333475D-09 1.747219960805D+00
    -4.397705197334D-06 7.456223014742D-03 3.321096301079D-06 5.153656602859D+03
     1.872000000000D+05-2.123415470123D-07 2.191127692578D+00-1.303851604462D-08
     9.744154842247D-01 3.215625000000D+02 8.424693816028D-01-8.405350193641D-09
    -2.578678937049D-10 1.000000000000D+00 1.997000000000D+03 0.000000000000D+00
     2.000000000000D+00 0.000000000000D+00 6.053596735001D-09 6.900000000000D+01
     1.799400000000D+05                   
G26 2018 04 17 08 00 00-1.798477023840D-04 1.296029950026D-11 0.000000000000D+00
     7.800000000000D+01-7.821875000000D+01 4.854844970481D-09-2.969737563524D+00
    -4.006549715996D-06 2.789137884974D-03 2.566725015640D-06 5.153640071869D+03
     2.016000000000D+05-1.303851604462D-08 2.169769018400D+00-2.048909664154D-08
     9.559613622107D-01 3.288125000000D+02 1.044914517341D-01-8.532141215767D-09
    -2.628680884076D-10 1.000000000000D+00 1.997000000000D+03 0.000000000000D+00
     2.800000000000D+00 0.000000000000D+00 7.450580596924D-09 7.800000000000D+01
     1.943400000000D+05                   
G27 2018 04 17 10 00 00 3.701909445226D-04-1.136868377216D-13 0.000000000000D+00
     9.600000000000D+01-7.315625000000D+01 3.698725548062D-09 2.570583257785D+00
    -3.755092620850D-06 5.843134131283D-03 1.242011785507D-05 5.153690109253D+03
     2.088000000000D+05-9.872019290924D-08-3.052851896610D+00-2.048909664154D-08
     9.775583954824D-01 1.492500000000D+02 3.906276862511D-01-7.625675202405D-09
     4.428755973063D-11 1.000000000000D+00 1.997000000000D+03 0.000000000000D+00
     2.800000000000D+00 0.000000000000D+00 1.396983861923D-09 9.600000000000D+01
     2.015400000000D+05                   
G28 2018 04 17 12 00 00 7.070987485349D-04 3.524291969370D-12 0.000000000000D+00
     7.300000000000D+01-8.815625000000D+01 4.158744459914D-09-1.813397318866D+00
    -4.341825842857D-06 1.953628100455D-02 3.708526492119D-06 5.153673091888D+03
     2.160000000000D+05 1.899898052216D-07 2.273349787538D+00 3.930181264877D-07
     9.860881880397D-01 3.191875000000D+02-1.522846123396D+00-8.024977127263D-09
    -4.957349530876D-10 1.000000000000D+00 1.997000000000D+03 0.000000000000D+00
     2.000000000000D+00 0.000000000000D+00-1.117587089539D-08 7.300000000000D+01
     2.087400000000D+05                   
G29 2018 04 17 04 00 00 4.650088958442D-04-6.139089236967D-12 0.000000000000D+00
     2.000000000000D+01-5.334375000000D+01 3.731583930744D-09 5.741667563043D-01
    -3.028661012650D-06 6.860488792881D-04 1.364946365356D-05 5.153716747284D+03
     1.872000000000D+05 2.421438694000D-08-2.988359278896D+00 1.490116119385D-08
     9.840681439424D-01 1.288437500000D+02 9.518414835384D-01-7.593888184942D-09
     1.321483616978D-10 1.000000000000D+00 1.997000000000D+03 0.000000000000D+00
     2.000000000000D+00 0.000000000000D+00-1.024454832077D-08 2.000000000000D+01
     1.799400000000D+05                   
G30 2018 04 17 11 59 44 8.378969505429D-05-3.979039320257D-12 0.000000000000D+00
     2.000000000000D+01 1.172500000000D+02 5.117713364200D-09 8.656428480821D-01
     6.116926670074D-06 3.265405423008D-03 4.258006811142D-06 5.153753135681D+03
     2.159840000000D+05 5.587935447693D-08 1.192108863799D+00 3.352761268616D-08
     9.444778809976D-01 2.836562500000D+02-3.120261603695D+00-8.613930013723D-09
     2.485817940379D-10 1.000000000000D+00 1.997000000000D+03 0.000000000000D+00
     2.000000000000D+00 0.000000000000D+00 3.725290298462D-09 2.000000000000D+01
     2.087100000000D+05                   
G31 2018 04 17 08 00 00 1.279148273170D-04-2.614797267597D-12 0.000000000000D+00
     8.800000000000D+01 1.107500000000D+02 4.599120195792D-09-1.571697153712D+00
     5.731359124184D-06 8.751730900258D-03 4.775822162628D-06 5.153642541885D+03
     2.016000000000D+05-6.146728992462D-08 1.170391013975D+00-4.284083843231D-08
     9.635305457033D-01 2.924375000000D+02-1.342596285667D-01-8.304631649025D-09
     4.118028695821D-10 1.000000000000D+00 1.997000000000D+03 0.000000000000D+00
     2.800000000000D+00 0.000000000000D+00-1.350417733192D-08 8.800000000000D+01
     1.943400000000D+05                   
